HULIANWANG DIGUI-129    
1 67237U 25311B   26061.75635210 -.00000068  00000+0  11398-3 0  9990
2 67237  50.0045 137.4282 0000878 297.1398  62.9388 13.36268418  9186
HULIANWANG DIGUI-130    
1 67238U 25311C   26062.32573880 -.00000053  00000+0  14493-3 0  9992
2 67238  50.0027 135.7399 0000762 347.7967  12.2888 13.34216065  9253
HULIANWANG DIGUI-131    
1 67239U 25311D   26062.33367387 -.00000058  00000+0  13601-3 0  9992
2 67239  49.9936 135.7994 0005678 327.2224  32.8297 13.34422370  9251
HULIANWANG DIGUI-132    
1 67240U 25311E   26062.31020959 -.00000063  00000+0  12442-3 0  9991
2 67240  50.0081 135.6848 0003197 280.0971  79.9543 13.35436555  9250
HULIANWANG DIGUI-133    
1 67241U 25311F   26062.29501376 -.00000058  00000+0  13348-3 0  9996
2 67241  50.0140 135.6304 0002448 326.9148  33.1574 13.35393752  9255
HULIANWANG DIGUI-134    
1 67242U 25311G   26062.30279795 -.00000058  00000+0  13519-3 0  9996
2 67242  50.0133 135.6083 0003500   4.1069 355.9834 13.35199419  9257
HULIANWANG DIGUI-135    
1 67243U 25311H   26062.31801801 -.00000058  00000+0  13544-3 0  9995
2 67243  50.0012 135.6851 0000888 276.4135  83.6638 13.34705869  9259
HULIANWANG DIGUI-136    
1 67244U 25311J   26062.28737188 -.00000063  00000+0  12287-3 0  9997
2 67244  50.0120 135.5779 0001734 318.4477  41.6266 13.35587064  9252
HULIANWANG DIGUI-137    
1 67435U 26007A   26062.29512125 -.00000026  00000+0  17597-3 0  9993
2 67435  50.0080 106.1504 0001749 116.8855 243.2203 13.44406332  6699
HULIANWANG DIGUI-138    
1 67436U 26007B   26062.30877377 -.00000029  00000+0  17308-3 0  9992
2 67436  50.0071 106.2207 0000593 208.7566 151.3280 13.43759549  6691
HULIANWANG DIGUI-139    
1 67437U 26007C   26062.30203277 -.00000011  00000+0  20411-3 0  9995
2 67437  50.0022 106.1790 0000856  41.6976 318.3968 13.43980849  6692
HULIANWANG DIGUI-140    
1 67438U 26007D   26062.31585352 -.00000016  00000+0  19621-3 0  9990
2 67438  50.0067 106.2628 0000613 210.9692 149.1151 13.43527491  6694
HULIANWANG DIGUI-141    
1 67439U 26007E   26062.28868162 -.00000025  00000+0  17763-3 0  9995
2 67439  50.0174 106.0944 0000967 218.2312 141.8498 13.44477946  6698
HULIANWANG DIGUI-142    
1 67440U 26007F   26062.35650840 -.00000108  00000+0  37181-4 0  9996
2 67440  50.0140 105.8375 0002044 183.9251 176.1612 13.44570039  6704
HULIANWANG DIGUI-143    
1 67441U 26007G   26062.27569739 -.00000027  00000+0  17428-3 0  9995
2 67441  50.0133 106.0859 0001457 312.0229  48.0526 13.44825453  6696
HULIANWANG DIGUI-144    
1 67442U 26007H   26062.26901249 -.00000035  00000+0  15947-3 0  9994
2 67442  50.0093 106.0292 0002773 270.3305  89.7256 13.45704186  6698
