[{"OBJECT_NAME":"HULIANWANG DIGUI-129","OBJECT_ID":"2025-311B","EPOCH":"2026-03-02T18:09:08.821440","MEAN_MOTION":13.36268418,"ECCENTRICITY":8.783e-5,"INCLINATION":50.0045,"RA_OF_ASC_NODE":137.4282,"ARG_OF_PERICENTER":297.1398,"MEAN_ANOMALY":62.9388,"EPHEMERIS_TYPE":0,"CLASSIFICATION_TYPE":"U","NORAD_CAT_ID":67237,"ELEMENT_SET_NO":999,"REV_AT_EPOCH":918,"BSTAR":0.00011397526,"MEAN_MOTION_DOT":-6.8e-7,"MEAN_MOTION_DDOT":0},{"OBJECT_NAME":"HULIANWANG DIGUI-130","OBJECT_ID":"2025-311C","EPOCH":"2026-03-03T07:49:03.832320","MEAN_MOTION":13.34216065,"ECCENTRICITY":7.622e-5,"INCLINATION":50.0027,"RA_OF_ASC_NODE":135.7399,"ARG_OF_PERICENTER":347.7967,"MEAN_ANOMALY":12.2888,"EPHEMERIS_TYPE":0,"CLASSIFICATION_TYPE":"U","NORAD_CAT_ID":67238,"ELEMENT_SET_NO":999,"REV_AT_EPOCH":925,"BSTAR":0.00014493299,"MEAN_MOTION_DOT":-5.3e-7,"MEAN_MOTION_DDOT":0},{"OBJECT_NAME":"HULIANWANG DIGUI-131","OBJECT_ID":"2025-311D","EPOCH":"2026-03-03T08:00:29.422368","MEAN_MOTION":13.3442237,"ECCENTRICITY":0.0005678,"INCLINATION":49.9936,"RA_OF_ASC_NODE":135.7994,"ARG_OF_PERICENTER":327.2224,"MEAN_ANOMALY":32.8297,"EPHEMERIS_TYPE":0,"CLASSIFICATION_TYPE":"U","NORAD_CAT_ID":67239,"ELEMENT_SET_NO":999,"REV_AT_EPOCH":925,"BSTAR":0.00013601117,"MEAN_MOTION_DOT":-5.8e-7,"MEAN_MOTION_DDOT":0},{"OBJECT_NAME":"HULIANWANG DIGUI-132","OBJECT_ID":"2025-311E","EPOCH":"2026-03-03T07:26:42.108576","MEAN_MOTION":13.35436555,"ECCENTRICITY":0.00031971,"INCLINATION":50.0081,"RA_OF_ASC_NODE":135.6848,"ARG_OF_PERICENTER":280.0971,"MEAN_ANOMALY":79.9543,"EPHEMERIS_TYPE":0,"CLASSIFICATION_TYPE":"U","NORAD_CAT_ID":67240,"ELEMENT_SET_NO":999,"REV_AT_EPOCH":925,"BSTAR":0.00012441785,"MEAN_MOTION_DOT":-6.3e-7,"MEAN_MOTION_DDOT":0},{"OBJECT_NAME":"HULIANWANG DIGUI-133","OBJECT_ID":"2025-311F","EPOCH":"2026-03-03T07:04:49.188864","MEAN_MOTION":13.35393752,"ECCENTRICITY":0.00024484,"INCLINATION":50.014,"RA_OF_ASC_NODE":135.6304,"ARG_OF_PERICENTER":326.9148,"MEAN_ANOMALY":33.1574,"EPHEMERIS_TYPE":0,"CLASSIFICATION_TYPE":"U","NORAD_CAT_ID":67241,"ELEMENT_SET_NO":999,"REV_AT_EPOCH":925,"BSTAR":0.00013348312,"MEAN_MOTION_DOT":-5.8e-7,"MEAN_MOTION_DDOT":0},{"OBJECT_NAME":"HULIANWANG DIGUI-134","OBJECT_ID":"2025-311G","EPOCH":"2026-03-03T07:16:01.742880","MEAN_MOTION":13.35199419,"ECCENTRICITY":0.00035001,"INCLINATION":50.0133,"RA_OF_ASC_NODE":135.6083,"ARG_OF_PERICENTER":4.1069,"MEAN_ANOMALY":355.9834,"EPHEMERIS_TYPE":0,"CLASSIFICATION_TYPE":"U","NORAD_CAT_ID":67242,"ELEMENT_SET_NO":999,"REV_AT_EPOCH":925,"BSTAR":0.00013518712,"MEAN_MOTION_DOT":-5.8e-7,"MEAN_MOTION_DDOT":0},{"OBJECT_NAME":"HULIANWANG DIGUI-135","OBJECT_ID":"2025-311H","EPOCH":"2026-03-03T07:37:56.756064","MEAN_MOTION":13.34705869,"ECCENTRICITY":8.882e-5,"INCLINATION":50.0012,"RA_OF_ASC_NODE":135.6851,"ARG_OF_PERICENTER":276.4135,"MEAN_ANOMALY":83.6638,"EPHEMERIS_TYPE":0,"CLASSIFICATION_TYPE":"U","NORAD_CAT_ID":67243,"ELEMENT_SET_NO":999,"REV_AT_EPOCH":925,"BSTAR":0.00013544282,"MEAN_MOTION_DOT":-5.8e-7,"MEAN_MOTION_DDOT":0},{"OBJECT_NAME":"HULIANWANG DIGUI-136","OBJECT_ID":"2025-311J","EPOCH":"2026-03-03T06:53:48.930432","MEAN_MOTION":13.35587064,"ECCENTRICITY":0.00017345,"INCLINATION":50.012,"RA_OF_ASC_NODE":135.5779,"ARG_OF_PERICENTER":318.4477,"MEAN_ANOMALY":41.6266,"EPHEMERIS_TYPE":0,"CLASSIFICATION_TYPE":"U","NORAD_CAT_ID":67244,"ELEMENT_SET_NO":999,"REV_AT_EPOCH":925,"BSTAR":0.00012287212,"MEAN_MOTION_DOT":-6.3e-7,"MEAN_MOTION_DDOT":0},{"OBJECT_NAME":"HULIANWANG DIGUI-137","OBJECT_ID":"2026-007A","EPOCH":"2026-03-03T07:04:58.476000","MEAN_MOTION":13.44406332,"ECCENTRICITY":0.00017498,"INCLINATION":50.008,"RA_OF_ASC_NODE":106.1504,"ARG_OF_PERICENTER":116.8855,"MEAN_ANOMALY":243.2203,"EPHEMERIS_TYPE":0,"CLASSIFICATION_TYPE":"U","NORAD_CAT_ID":67435,"ELEMENT_SET_NO":999,"REV_AT_EPOCH":669,"BSTAR":0.00017596593,"MEAN_MOTION_DOT":-2.6e-7,"MEAN_MOTION_DDOT":0},{"OBJECT_NAME":"HULIANWANG DIGUI-138","OBJECT_ID":"2026-007B","EPOCH":"2026-03-03T07:24:38.053728","MEAN_MOTION":13.43759549,"ECCENTRICITY":5.936e-5,"INCLINATION":50.0071,"RA_OF_ASC_NODE":106.2207,"ARG_OF_PERICENTER":208.7566,"MEAN_ANOMALY":151.328,"EPHEMERIS_TYPE":0,"CLASSIFICATION_TYPE":"U","NORAD_CAT_ID":67436,"ELEMENT_SET_NO":999,"REV_AT_EPOCH":669,"BSTAR":0.00017308425,"MEAN_MOTION_DOT":-2.9e-7,"MEAN_MOTION_DDOT":0},{"OBJECT_NAME":"HULIANWANG DIGUI-139","OBJECT_ID":"2026-007C","EPOCH":"2026-03-03T07:14:55.631328","MEAN_MOTION":13.43980849,"ECCENTRICITY":8.56e-5,"INCLINATION":50.0022,"RA_OF_ASC_NODE":106.179,"ARG_OF_PERICENTER":41.6976,"MEAN_ANOMALY":318.3968,"EPHEMERIS_TYPE":0,"CLASSIFICATION_TYPE":"U","NORAD_CAT_ID":67437,"ELEMENT_SET_NO":999,"REV_AT_EPOCH":669,"BSTAR":0.00020411144,"MEAN_MOTION_DOT":-1.1e-7,"MEAN_MOTION_DDOT":0},{"OBJECT_NAME":"HULIANWANG DIGUI-140","OBJECT_ID":"2026-007D","EPOCH":"2026-03-03T07:34:49.744128","MEAN_MOTION":13.43527491,"ECCENTRICITY":6.137e-5,"INCLINATION":50.0067,"RA_OF_ASC_NODE":106.2628,"ARG_OF_PERICENTER":210.9692,"MEAN_ANOMALY":149.1151,"EPHEMERIS_TYPE":0,"CLASSIFICATION_TYPE":"U","NORAD_CAT_ID":67438,"ELEMENT_SET_NO":999,"REV_AT_EPOCH":669,"BSTAR":0.00019620533,"MEAN_MOTION_DOT":-1.6e-7,"MEAN_MOTION_DDOT":0},{"OBJECT_NAME":"HULIANWANG DIGUI-141","OBJECT_ID":"2026-007E","EPOCH":"2026-03-03T06:55:42.091968","MEAN_MOTION":13.44477946,"ECCENTRICITY":9.676e-5,"INCLINATION":50.0174,"RA_OF_ASC_NODE":106.0944,"ARG_OF_PERICENTER":218.2312,"MEAN_ANOMALY":141.8498,"EPHEMERIS_TYPE":0,"CLASSIFICATION_TYPE":"U","NORAD_CAT_ID":67439,"ELEMENT_SET_NO":999,"REV_AT_EPOCH":669,"BSTAR":0.00017763279,"MEAN_MOTION_DOT":-2.5e-7,"MEAN_MOTION_DDOT":0},{"OBJECT_NAME":"HULIANWANG DIGUI-142","OBJECT_ID":"2026-007F","EPOCH":"2026-03-03T08:33:22.325760","MEAN_MOTION":13.44570039,"ECCENTRICITY":0.00020441,"INCLINATION":50.014,"RA_OF_ASC_NODE":105.8375,"ARG_OF_PERICENTER":183.9251,"MEAN_ANOMALY":176.1612,"EPHEMERIS_TYPE":0,"CLASSIFICATION_TYPE":"U","NORAD_CAT_ID":67440,"ELEMENT_SET_NO":999,"REV_AT_EPOCH":670,"BSTAR":3.7180604e-5,"MEAN_MOTION_DOT":-1.08e-6,"MEAN_MOTION_DDOT":0},{"OBJECT_NAME":"HULIANWANG DIGUI-143","OBJECT_ID":"2026-007G","EPOCH":"2026-03-03T06:37:00.254496","MEAN_MOTION":13.44825453,"ECCENTRICITY":0.00014577,"INCLINATION":50.0133,"RA_OF_ASC_NODE":106.0859,"ARG_OF_PERICENTER":312.0229,"MEAN_ANOMALY":48.0526,"EPHEMERIS_TYPE":0,"CLASSIFICATION_TYPE":"U","NORAD_CAT_ID":67441,"ELEMENT_SET_NO":999,"REV_AT_EPOCH":669,"BSTAR":0.00017427513,"MEAN_MOTION_DOT":-2.7e-7,"MEAN_MOTION_DDOT":0},{"OBJECT_NAME":"HULIANWANG DIGUI-144","OBJECT_ID":"2026-007H","EPOCH":"2026-03-03T06:27:22.679136","MEAN_MOTION":13.45704186,"ECCENTRICITY":0.0002773,"INCLINATION":50.0093,"RA_OF_ASC_NODE":106.0292,"ARG_OF_PERICENTER":270.3305,"MEAN_ANOMALY":89.7256,"EPHEMERIS_TYPE":0,"CLASSIFICATION_TYPE":"U","NORAD_CAT_ID":67442,"ELEMENT_SET_NO":999,"REV_AT_EPOCH":669,"BSTAR":0.00015947183,"MEAN_MOTION_DOT":-3.5e-7,"MEAN_MOTION_DDOT":0}]
